{"type": "FeatureCollection", "features": [ {"type": "Feature", "properties": {"norad_id": 65077, "name": "CREW DRAGON 11", "group": "stations", "lat": -51.26577028106913, "lon": 92.8484504529921, "alt_km": 422.1655622616672, "timestamp": "2025-12-06T09:34:15.718588+00:00", "meta": {"OBJECT_NAME": "CREW DRAGON 11", "OBJECT_ID": "2025-166A", "EPOCH": "2025-12-05T21:33:01.156320", "MEAN_MOTION": 15.49346308, "ECCENTRICITY": 0.00035522, "INCLINATION": 51.6298, "RA_OF_ASC_NODE": 176.3533, "ARG_OF_PERICENTER": 209.1564, "MEAN_ANOMALY": 150.9226, "EPHEMERIS_TYPE": 0, "CLASSIFICATION_TYPE": "U", "NORAD_CAT_ID": 65077, "ELEMENT_SET_NO": 999, "REV_AT_EPOCH": 214, "BSTAR": 0.0002548829, "MEAN_MOTION_DOT": 0.00013789, "MEAN_MOTION_DDOT": 0}, "tle": {"line1": "1 65077U 25166A   25339.89793005  .00013789  00000+0  25488-3 0  9995", "line2": "2 65077  51.6298 176.3533 0003552 209.1564 150.9226 15.49346308  2143"}}, "geometry": {"type": "Point", "coordinates": [92.8484504529921, -51.26577028106913]}}, {"type": "Feature", "properties": {"norad_id": 65304, "name": "DRAGON CRS-33", "group": "stations", "lat": -51.26577020219644, "lon": 92.84845147549599, "alt_km": 422.1655622841199, "timestamp": "2025-12-06T09:34:15.718598+00:00", "meta": {"OBJECT_NAME": "DRAGON CRS-33", "OBJECT_ID": "2025-186A", "EPOCH": "2025-12-05T21:33:01.156320", "MEAN_MOTION": 15.49346308, "ECCENTRICITY": 0.00035522, "INCLINATION": 51.6298, "RA_OF_ASC_NODE": 176.3533, "ARG_OF_PERICENTER": 209.1564, "MEAN_ANOMALY": 150.9226, "EPHEMERIS_TYPE": 0, "CLASSIFICATION_TYPE": "U", "NORAD_CAT_ID": 65304, "ELEMENT_SET_NO": 999, "REV_AT_EPOCH": 11, "BSTAR": 0.0002548829, "MEAN_MOTION_DOT": 0.00013789, "MEAN_MOTION_DDOT": 0}, "tle": {"line1": "1 65304U 25186A   25339.89793005  .00013789  00000+0  25488-3 0  9990", "line2": "2 65304  51.6298 176.3533 0003552 209.1564 150.9226 15.49346308   111"}}, "geometry": {"type": "Point", "coordinates": [92.84845147549599, -51.26577020219644]}}, {"type": "Feature", "properties": {"norad_id": 65586, "name": "PROGRESS-MS 32", "group": "stations", "lat": -51.26577012332359, "lon": 92.84845249800183, "alt_km": 422.16556230656715, "timestamp": "2025-12-06T09:34:15.718608+00:00", "meta": {"OBJECT_NAME": "PROGRESS-MS 32", "OBJECT_ID": "2025-204A", "EPOCH": "2025-12-05T21:33:01.156320", "MEAN_MOTION": 15.49346308, "ECCENTRICITY": 0.00035522, "INCLINATION": 51.6298, "RA_OF_ASC_NODE": 176.3533, "ARG_OF_PERICENTER": 209.1564, "MEAN_ANOMALY": 150.9226, "EPHEMERIS_TYPE": 0, "CLASSIFICATION_TYPE": "U", "NORAD_CAT_ID": 65586, "ELEMENT_SET_NO": 999, "REV_AT_EPOCH": 27, "BSTAR": 0.0002548829, "MEAN_MOTION_DOT": 0.00013789, "MEAN_MOTION_DDOT": 0}, "tle": {"line1": "1 65586U 25204A   25339.89793005  .00013789  00000+0  25488-3 0  9993", "line2": "2 65586  51.6298 176.3533 0003552 209.1564 150.9226 15.49346308   270"}}, "geometry": {"type": "Point", "coordinates": [92.84845249800183, -51.26577012332359]}}, {"type": "Feature", "properties": {"norad_id": 65616, "name": "CYGNUS NG-23", "group": "stations", "lat": -51.26577004445082, "lon": 92.84845352050637, "alt_km": 422.16556232901894, "timestamp": "2025-12-06T09:34:15.718618+00:00", "meta": {"OBJECT_NAME": "CYGNUS NG-23", "OBJECT_ID": "2025-208A", "EPOCH": "2025-12-05T21:33:01.156320", "MEAN_MOTION": 15.49346308, "ECCENTRICITY": 0.00035522, "INCLINATION": 51.6298, "RA_OF_ASC_NODE": 176.3533, "ARG_OF_PERICENTER": 209.1564, "MEAN_ANOMALY": 150.9226, "EPHEMERIS_TYPE": 0, "CLASSIFICATION_TYPE": "U", "NORAD_CAT_ID": 65616, "ELEMENT_SET_NO": 999, "REV_AT_EPOCH": 22, "BSTAR": 0.0002548829, "MEAN_MOTION_DOT": 0.00013789, "MEAN_MOTION_DDOT": 0}, "tle": {"line1": "1 65616U 25208A   25339.89793005  .00013789  00000+0  25488-3 0  9991", "line2": "2 65616  51.6298 176.3533 0003552 209.1564 150.9226 15.49346308   229"}}, "geometry": {"type": "Point", "coordinates": [92.84845352050637, -51.26577004445082]}}, {"type": "Feature", "properties": {"norad_id": 65729, "name": "DRAGONFLY", "group": "stations", "lat": 36.676191414525896, "lon": -47.99951568179244, "alt_km": 356.9144234095311, "timestamp": "2025-12-06T09:34:15.718628+00:00", "meta": {"OBJECT_NAME": "DRAGONFLY", "OBJECT_ID": "1998-067XH", "EPOCH": "2025-12-05T22:19:10.752384", "MEAN_MOTION": 15.69233632, "ECCENTRICITY": 0.00065123, "INCLINATION": 51.6246, "RA_OF_ASC_NODE": 170.5624, "ARG_OF_PERICENTER": 233.7397, "MEAN_ANOMALY": 126.2998, "EPHEMERIS_TYPE": 0, "CLASSIFICATION_TYPE": "U", "NORAD_CAT_ID": 65729, "ELEMENT_SET_NO": 999, "REV_AT_EPOCH": 1209, "BSTAR": 0.0014111437, "MEAN_MOTION_DOT": 0.00170954, "MEAN_MOTION_DDOT": 0}, "tle": {"line1": "1 65729U 98067XH  25339.92998556  .00170954  00000+0  14111-2 0  9999", "line2": "2 65729  51.6246 170.5624 0006512 233.7397 126.2998 15.69233632 12097"}}, "geometry": {"type": "Point", "coordinates": [-47.99951568179244, 36.676191414525896]}}, {"type": "Feature", "properties": {"norad_id": 65731, "name": "1998-067XK", "group": "stations", "lat": -49.62586089582315, "lon": 100.63031082680895, "alt_km": 379.1304535431145, "timestamp": "2025-12-06T09:34:15.718638+00:00", "meta": {"OBJECT_NAME": "1998-067XK", "OBJECT_ID": "1998-067XK", "EPOCH": "2025-12-05T20:05:48.700608", "MEAN_MOTION": 15.64093983, "ECCENTRICITY": 0.00057209, "INCLINATION": 51.6273, "RA_OF_ASC_NODE": 172.2071, "ARG_OF_PERICENTER": 204.6703, "MEAN_ANOMALY": 155.4018, "EPHEMERIS_TYPE": 0, "CLASSIFICATION_TYPE": "U", "NORAD_CAT_ID": 65731, "ELEMENT_SET_NO": 999, "REV_AT_EPOCH": 1206, "BSTAR": 0.0011848304, "MEAN_MOTION_DOT": 0.00115678, "MEAN_MOTION_DDOT": 0}, "tle": {"line1": "1 65731U 98067XK  25339.83736922  .00115678  00000+0  11848-2 0  9995", "line2": "2 65731  51.6273 172.2071 0005720 204.6703 155.4018 15.64093983 12065"}}, "geometry": {"type": "Point", "coordinates": [100.63031082680895, -49.62586089582315]}}, {"type": "Feature", "properties": {"norad_id": 65732, "name": "RSP-03", "group": "stations", "lat": -12.165283934880353, "lon": -1.3734620676708886, "alt_km": 366.47651892618615, "timestamp": "2025-12-06T09:34:15.718648+00:00", "meta": {"OBJECT_NAME": "RSP-03", "OBJECT_ID": "1998-067XL", "EPOCH": "2025-12-05T18:57:39.721248", "MEAN_MOTION": 15.66485796, "ECCENTRICITY": 0.00063944, "INCLINATION": 51.6249, "RA_OF_ASC_NODE": 171.8843, "ARG_OF_PERICENTER": 207.4241, "MEAN_ANOMALY": 152.6418, "EPHEMERIS_TYPE": 0, "CLASSIFICATION_TYPE": "U", "NORAD_CAT_ID": 65732, "ELEMENT_SET_NO": 999, "REV_AT_EPOCH": 1207, "BSTAR": 0.0013603267, "MEAN_MOTION_DOT": 0.00146827, "MEAN_MOTION_DDOT": 0}, "tle": {"line1": "1 65732U 98067XL  25339.79004307  .00146827  00000+0  13603-2 0  9997", "line2": "2 65732  51.6249 171.8843 0006394 207.4241 152.6418 15.66485796 12070"}}, "geometry": {"type": "Point", "coordinates": [-1.3734620676708886, -12.165283934880353]}}, {"type": "Feature", "properties": {"norad_id": 65733, "name": "GHS-01", "group": "stations", "lat": -11.50898043814108, "lon": 158.44073892466696, "alt_km": 357.73816418122533, "timestamp": "2025-12-06T09:34:15.718659+00:00", "meta": {"OBJECT_NAME": "GHS-01", "OBJECT_ID": "1998-067XM", "EPOCH": "2025-12-05T18:22:20.248896", "MEAN_MOTION": 15.71403318, "ECCENTRICITY": 0.00069806, "INCLINATION": 51.6266, "RA_OF_ASC_NODE": 170.9683, "ARG_OF_PERICENTER": 233.1607, "MEAN_ANOMALY": 126.8751, "EPHEMERIS_TYPE": 0, "CLASSIFICATION_TYPE": "U", "NORAD_CAT_ID": 65733, "ELEMENT_SET_NO": 999, "REV_AT_EPOCH": 1208, "BSTAR": 0.0017020077, "MEAN_MOTION_DOT": 0.00227447, "MEAN_MOTION_DDOT": 0}, "tle": {"line1": "1 65733U 98067XM  25339.76551214  .00227447  00000+0  17020-2 0  9994", "line2": "2 65733  51.6266 170.9683 0006980 233.1607 126.8751 15.71403318 12085"}}, "geometry": {"type": "Point", "coordinates": [158.44073892466696, -11.50898043814108]}}, {"type": "Feature", "properties": {"norad_id": 65941, "name": "YOTSUBA-KULOVER", "group": "stations", "lat": -2.4819761115241534, "lon": -6.210837651378129, "alt_km": 392.10551044973727, "timestamp": "2025-12-06T09:34:15.718674+00:00", "meta": {"OBJECT_NAME": "YOTSUBA-KULOVER", "OBJECT_ID": "1998-067XN", "EPOCH": "2025-12-05T22:00:54.491904", "MEAN_MOTION": 15.58286182, "ECCENTRICITY": 0.00020197, "INCLINATION": 51.6277, "RA_OF_ASC_NODE": 174.238, "ARG_OF_PERICENTER": 187.9006, "MEAN_ANOMALY": 172.1955, "EPHEMERIS_TYPE": 0, "CLASSIFICATION_TYPE": "U", "NORAD_CAT_ID": 65941, "ELEMENT_SET_NO": 999, "REV_AT_EPOCH": 879, "BSTAR": 0.0010118942, "MEAN_MOTION_DOT": 0.0007842, "MEAN_MOTION_DDOT": 0}, "tle": {"line1": "1 65941U 98067XN  25339.91729736  .00078420  00000+0  10119-2 0  9995", "line2": "2 65941  51.6277 174.2380 0002019 187.9006 172.1955 15.58286182  8793"}}, "geometry": {"type": "Point", "coordinates": [-6.210837651378129, -2.4819761115241534]}}, {"type": "Feature", "properties": {"norad_id": 65942, "name": "BOTAN", "group": "stations", "lat": 50.55862002706587, "lon": -114.29340569228864, "alt_km": 378.0201794648119, "timestamp": "2025-12-06T09:34:15.718684+00:00", "meta": {"OBJECT_NAME": "BOTAN", "OBJECT_ID": "1998-067XP", "EPOCH": "2025-12-05T19:24:08.395200", "MEAN_MOTION": 15.6107927, "ECCENTRICITY": 0.00040957, "INCLINATION": 51.6268, "RA_OF_ASC_NODE": 174.2609, "ARG_OF_PERICENTER": 186.092, "MEAN_ANOMALY": 174.0025, "EPHEMERIS_TYPE": 0, "CLASSIFICATION_TYPE": "U", "NORAD_CAT_ID": 65942, "ELEMENT_SET_NO": 999, "REV_AT_EPOCH": 878, "BSTAR": 0.0014404532, "MEAN_MOTION_DOT": 0.001252, "MEAN_MOTION_DDOT": 0}, "tle": {"line1": "1 65942U 98067XP  25339.80843050  .00125200  00000+0  14405-2 0  9991", "line2": "2 65942  51.6268 174.2609 0004095 186.0920 174.0025 15.61079270  8789"}}, "geometry": {"type": "Point", "coordinates": [-114.29340569228864, 50.55862002706587]}}]}